STARLINK-2022           
1 47643U 21012Z   23286.51840562  .00007423  00000+0  51662-3 0  9990
2 47643  53.0554  33.8835 0001683  91.3262 268.7920 15.06408108147389
